[{"OBJECT_NAME":"STARLINK-4502","OBJECT_ID":"2022-101AG","EPOCH":"2026-03-09T09:32:45.285504","MEAN_MOTION":15.08837837,"ECCENTRICITY":0.00013195,"INCLINATION":53.2171,"RA_OF_ASC_NODE":65.4309,"ARG_OF_PERICENTER":90.361,"MEAN_ANOMALY":269.7533,"EPHEMERIS_TYPE":0,"CLASSIFICATION_TYPE":"U","NORAD_CAT_ID":53557,"ELEMENT_SET_NO":999,"REV_AT_EPOCH":19691,"BSTAR":1.1913437e-5,"MEAN_MOTION_DOT":-9.8e-7,"MEAN_MOTION_DDOT":0},{"OBJECT_NAME":"CURIUM ONE","OBJECT_ID":"2024-128H","EPOCH":"2026-03-09T16:29:14.303904","MEAN_MOTION":15.10847276,"ECCENTRICITY":0.00508907,"INCLINATION":61.979,"RA_OF_ASC_NODE":197.7537,"ARG_OF_PERICENTER":110.7183,"MEAN_ANOMALY":249.9377,"EPHEMERIS_TYPE":0,"CLASSIFICATION_TYPE":"U","NORAD_CAT_ID":60242,"ELEMENT_SET_NO":999,"REV_AT_EPOCH":9141,"BSTAR":0.00074106619,"MEAN_MOTION_DOT":0.00012574,"MEAN_MOTION_DDOT":0}]
